#aV2011  7  6  0  0   .00000000      96 DD+AD WGS84 FIT  NGA
## 1643 259200.00000000   900.00000000 55748  .0000000000000
+   32     1  2  3  4  5  6  7  8  9 10 11 12 13 14 15 16 17
+         18 19 20 21 22 23 24 25 26 27 28 29 30 31 32  0  0
+          0  0  0  0  0  0  0  0  0  0  0  0  0  0  0  0  0
+          0  0  0  0  0  0  0  0  0  0  0  0  0  0  0  0  0
+          0  0  0  0  0  0  0  0  0  0  0  0  0  0  0  0  0
++         0  0  0  0  0  0  0  0  0  0  0  0  0  0  0  0  0
++         0  0  0  0  0  0  0  0  0  0  0  0  0  0  0  0  0
++         0  0  0  0  0  0  0  0  0  0  0  0  0  0  0  0  0
++         0  0  0  0  0  0  0  0  0  0  0  0  0  0  0  0  0
++         0  0  0  0  0  0  0  0  0  0  0  0  0  0  0  0  0
%c cc cc ccc ccc cccc cccc cccc cccc ccccc ccccc ccccc ccccc
%c cc cc ccc ccc cccc cccc cccc cccc ccccc ccccc ccccc ccccc
%f  0.0000000  0.000000000  0.00000000000  0.000000000000000
%f  0.0000000  0.000000000  0.00000000000  0.000000000000000
%i    0    0    0    0      0      0      0      0         0
%i    0    0    0    0      0      0      0      0         0
/*      NGA, ST. LOUIS,MO.                                  
/*   EPHEMERIS COMPUTED FROM  3 DAYS OF DATA                
/* CCCCCCCCCCCCCCCCCCCCCCCCCCCCCCCCCCCCCCCCCCCCCCCCCCCCCCCCC
/* CCCCCCCCCCCCCCCCCCCCCCCCCCCCCCCCCCCCCCCCCCCCCCCCCCCCCCCCC
*  2011  7  6 21 30   .00000000                                                 
P  1 -14077.991094  13989.459890 -17999.825504     95.111471                    
V  1 -22215.265682    314.949955  18022.088330       .015207                    
P  2 -18425.429598   5593.373624 -18025.106057    345.329667                    
V  2   9680.169289 -21260.704209 -16926.488884       .018516                    
P  3  18848.405953   2559.966806  18232.103338    738.398288                    
V  3  12827.570713  20404.155945 -15446.284861       .048953                    
P  4 -13068.018958  -8933.951745 -21528.850734    164.759746                    
V  4  14052.048022 -22991.291552   1365.495352       .108571                    
P  5 -26390.569937   1793.340767   2971.749721   -185.484294                    
V  5  -3745.740144  -2969.580409 -31230.821064      -.055572                    
P  6  19377.876636   7421.607417  16862.420016     47.110676                    
V  6   9561.398991  18927.034774 -19254.152523      -.841859                    
P  7   2900.801355 -22515.237920  13601.278926     16.919201                    
V  7  10740.913737 -13749.810900 -25272.070459       .013913                    
P  8  -4148.060279 -16596.799649  20168.022124      8.421951                    
V  8  15766.277068 -20246.155797 -13976.127905       .000496                    
P  9 -14867.220022  21682.550917   3248.589417     91.046545                    
V  9    537.610957  -5227.537708  31895.195114       .024838                    
P 10 -21709.415790  -9690.063331 -12435.384622     -5.894038                    
V 10  15409.786540  -1751.225116 -25618.377521      -.012209                    
P 11  12906.235118 -21493.682662   7909.836451   -165.794583                    
V 11   1872.389911  11685.035078  27908.279949      -.032889                    
P 12 -14988.417375  11925.361595 -18309.218788      7.382020                    
V 12 -23248.746544  -2127.464060  17802.399191       .025473                    
P 13  -2827.067740 -23944.849999 -11199.557796    262.315841                    
V 13   7309.686082  12040.100005 -28013.456519      -.017191                    
P 14  14874.735667  21162.881901  -6200.272740    160.146603                    
V 14   1757.435084   8078.969596  30840.548716       .021074                    
P 15 -10550.920944  12003.957389  21197.175882   -117.372779                    
V 15 -14202.329402 -22935.552931   6084.515725       .021151                    
P 16  26513.286562   -908.947104   3279.686369   -183.746740                    
V 16   3995.999640   2224.302175 -31548.704495      -.024552                    
P 17 -15764.625933 -20469.337845  -6512.187541    182.770680                    
V 17  -1650.460590  -8610.671025  30180.836723      -.005700                    
P 18   6945.561335  15596.730879  20746.544828    145.882195                    
V 18 -25652.795410     29.931036   8325.187990       .019129                    
P 19  13121.964146  -7883.501253  21677.874163   -159.215821                    
V 19  11712.307829  24968.019252   2343.835948      -.041356                    
P 20  11992.646009 -14364.392519 -18968.737257     50.474461                    
V 20  23944.872856   1125.099886  14455.733126       .003215                    
P 21    517.447962  21501.819005  15606.435136   -156.095244                    
V 21 -12501.117222  15101.481691 -21576.454039      -.025907                    
P 22  19213.099238  11491.551703  14553.919692    146.584670                    
V 22 -18295.542980   2034.776991  22710.719678      -.004531                    
P 23   5001.711535 -18000.296009 -18731.088909    293.830273                    
V 23  12816.500250  20252.753701 -16383.759262      -.028702                    
P 24  14828.924130 -21838.742417    186.899096    404.491192                    
V 24   2797.638379   2092.126578  31657.601072       .031501                    
P 25  -1535.722968  15116.179488 -21807.956360      7.723981                    
V 25 -27621.631984   -197.391846   1837.180672       .019209                    
P 26 -15867.481917  -1730.800232  20717.051052    -82.766429                    
V 26 -11048.068364 -25221.183442  -9899.066923      -.118831                    
P 27 -17256.051347  17413.425343  10412.263793    282.124168                    
V 27   4055.079013 -11848.635171  28648.934341       .036801                    
P 28 -15879.835995 -12861.527532  17623.728894     49.998477                    
V 28  21262.319182     50.626177  19537.389067       .027399                    
P 29   2506.211748  23498.723626 -12097.396708    221.094552                    
V 29  -9065.217352 -12731.451522 -26397.176054       .030580                    
P 30  25275.637797   4403.669242  -7327.099199     20.335784                    
V 30  -8671.016744   2802.149694 -29917.783418       .043529                    
P 31  13699.336345   5696.439463 -21843.943784    106.878278                    
V 31 -14579.108863  24073.609981  -2634.433826       .059371                    
P 32  19872.766809  -8551.895903 -14842.408238   -286.781801                    
V 32  19165.066455   4496.941851  23064.605218      -.070889                    
EOF
